{
  "norad_id": 66010,
  "name": "STARLINK-35297",
  "history": [
    {
      "epoch": "2026-03-28T18:26:47.239584Z",
      "apogee_km": 476.3315871915238,
      "perigee_km": 473.9872115592261,
      "latitude_deg": -2.8339397932092894e-05,
      "longitude_deg": -87.38015759491228,
      "height_km": 475.9863518410012,
      "semi_major_axis_km": 6853.296399375375,
      "eccentricity": 0.00017104,
      "inclination_deg": 53.16,
      "raan_deg": 15.501,
      "arg_perigee_deg": 86.5508,
      "mean_anomaly_deg": 273.5688,
      "mean_motion_rev_day": 15.30218645
    },
    {
      "epoch": "2026-03-29T00:42:59.883264Z",
      "apogee_km": 475.7793960172703,
      "perigee_km": 474.58691830992484,
      "latitude_deg": -2.526809701767773e-05,
      "longitude_deg": 177.0901555253931,
      "height_km": 475.9349540805486,
      "semi_major_axis_km": 6853.320157163597,
      "eccentricity": 8.7e-05,
      "inclination_deg": 53.1604,
      "raan_deg": 14.2815,
      "arg_perigee_deg": 75.7363,
      "mean_anomaly_deg": 284.3734,
      "mean_motion_rev_day": 15.30210688
    },
    {
      "epoch": "2026-03-30T01:47:51.287424Z",
      "apogee_km": 476.38620881959014,
      "perigee_km": 473.9549294263679,
      "latitude_deg": -4.831187233115867e-05,
      "longitude_deg": 154.9934171019822,
      "height_km": 475.76737699118024,
      "semi_major_axis_km": 6853.307569122979,
      "eccentricity": 0.00017738,
      "inclination_deg": 53.1607,
      "raan_deg": 9.429,
      "arg_perigee_deg": 75.6771,
      "mean_anomaly_deg": 284.4426,
      "mean_motion_rev_day": 15.30214904
    },
    {
      "epoch": "2026-03-30T19:02:26.508768Z",
      "apogee_km": 475.9848573106483,
      "perigee_km": 474.34431397707704,
      "latitude_deg": -3.844066143773923e-05,
      "longitude_deg": -107.69487996880137,
      "height_km": 476.00178915410004,
      "semi_major_axis_km": 6853.301585643862,
      "eccentricity": 0.00011969,
      "inclination_deg": 53.1592,
      "raan_deg": 6.0956,
      "arg_perigee_deg": 85.742,
      "mean_anomaly_deg": 274.3717,
      "mean_motion_rev_day": 15.30216908
    },
    {
      "epoch": "2026-03-31T18:33:14.625216Z",
      "apogee_km": 476.3731427764751,
      "perigee_km": 473.9868178039387,
      "latitude_deg": -2.5295876971044917e-05,
      "longitude_deg": -105.91141366533168,
      "height_km": 476.24459409211903,
      "semi_major_axis_km": 6853.316980290207,
      "eccentricity": 0.0001741,
      "inclination_deg": 53.1605,
      "raan_deg": 1.5452,
      "arg_perigee_deg": 98.0514,
      "mean_anomaly_deg": 262.0684,
      "mean_motion_rev_day": 15.30211752
    },
    {
      "epoch": "2026-04-01T21:12:08.848800Z",
      "apogee_km": 475.9639376941959,
      "perigee_km": 474.3438197304695,
      "latitude_deg": -6.40336015907537e-05,
      "longitude_deg": -151.88588343054624,
      "height_km": 476.3173326683676,
      "semi_major_axis_km": 6853.290878712332,
      "eccentricity": 0.0001182,
      "inclination_deg": 53.1606,
      "raan_deg": 356.3911,
      "arg_perigee_deg": 109.1021,
      "mean_anomaly_deg": 251.0107,
      "mean_motion_rev_day": 15.30220494
    },
    {
      "epoch": "2026-04-02T17:34:49.812672Z",
      "apogee_km": 475.78903470218756,
      "perigee_km": 474.4896535073449,
      "latitude_deg": -1.6304683080726197e-05,
      "longitude_deg": -102.34162660763806,
      "height_km": 476.00224630696925,
      "semi_major_axis_km": 6853.2763441047655,
      "eccentricity": 9.48e-05,
      "inclination_deg": 53.1609,
      "raan_deg": 352.4429,
      "arg_perigee_deg": 86.8484,
      "mean_anomaly_deg": 273.2625,
      "mean_motion_rev_day": 15.30225362
    },
    {
      "epoch": "2026-04-02T22:16:59.224800Z",
      "apogee_km": 475.95995312714604,
      "perigee_km": 474.42754837127814,
      "latitude_deg": 1.9578250892387786e-05,
      "longitude_deg": -173.98454645128973,
      "height_km": 475.9937498406253,
      "semi_major_axis_km": 6853.330750749212,
      "eccentricity": 0.0001118,
      "inclination_deg": 53.1604,
      "raan_deg": 351.5323,
      "arg_perigee_deg": 82.6259,
      "mean_anomaly_deg": 277.4869,
      "mean_motion_rev_day": 15.3020714
    },
    {
      "epoch": "2026-04-03T02:59:08.782944Z",
      "apogee_km": 476.03906621687656,
      "perigee_km": 474.26461267056766,
      "latitude_deg": -4.807948352841513e-06,
      "longitude_deg": 114.37317864096488,
      "height_km": 476.03487011459305,
      "semi_major_axis_km": 6853.288839443722,
      "eccentricity": 0.00012946,
      "inclination_deg": 53.1604,
      "raan_deg": 350.623,
      "arg_perigee_deg": 89.0272,
      "mean_anomaly_deg": 271.0877,
      "mean_motion_rev_day": 15.30221177
    },
    {
      "epoch": "2026-04-04T21:18:35.716032Z",
      "apogee_km": 476.2755734701268,
      "perigee_km": 474.09621678947497,
      "latitude_deg": 4.132035332929404e-05,
      "longitude_deg": -170.41910009966801,
      "height_km": 476.74714375197783,
      "semi_major_axis_km": 6853.322895129801,
      "eccentricity": 0.000159,
      "inclination_deg": 53.1606,
      "raan_deg": 342.4311,
      "arg_perigee_deg": 127.484,
      "mean_anomaly_deg": 232.6306,
      "mean_motion_rev_day": 15.30209771
    },
    {
      "epoch": "2026-04-05T09:51:02.610432Z",
      "apogee_km": 476.19266028901257,
      "perigee_km": 474.4052841874527,
      "latitude_deg": -1.2261439075727516e-05,
      "longitude_deg": -1.472333380318845,
      "height_km": 476.19596135304005,
      "semi_major_axis_km": 6853.435972238232,
      "eccentricity": 0.0001304,
      "inclination_deg": 53.1613,
      "raan_deg": 340.005,
      "arg_perigee_deg": 89.925,
      "mean_anomaly_deg": 270.19,
      "mean_motion_rev_day": 15.301719
    },
    {
      "epoch": "2026-04-06T01:31:34.519008Z",
      "apogee_km": 476.0028989526081,
      "perigee_km": 474.3590621017984,
      "latitude_deg": -5.947182824784812e-05,
      "longitude_deg": 119.71730668498499,
      "height_km": 475.9623568468653,
      "semi_major_axis_km": 6853.317980527203,
      "eccentricity": 0.00011993,
      "inclination_deg": 53.1609,
      "raan_deg": 336.9714,
      "arg_perigee_deg": 81.8215,
      "mean_anomaly_deg": 278.2921,
      "mean_motion_rev_day": 15.30211417
    },
    {
      "epoch": "2026-04-07T08:52:35.999904Z",
      "apogee_km": 476.0605546720153,
      "perigee_km": 474.17042763495556,
      "latitude_deg": -2.244232289708008e-05,
      "longitude_deg": 2.1056448203115377,
      "height_km": 475.8173524366362,
      "semi_major_axis_km": 6853.252491153486,
      "eccentricity": 0.0001379,
      "inclination_deg": 53.1615,
      "raan_deg": 330.9034,
      "arg_perigee_deg": 78.0126,
      "mean_anomaly_deg": 282.1029,
      "mean_motion_rev_day": 15.30233351
    },
    {
      "epoch": "2026-04-08T14:39:38.190816Z",
      "apogee_km": 475.9021692782726,
      "perigee_km": 474.59248753311476,
      "latitude_deg": -5.08555244381246e-05,
      "longitude_deg": -91.63919191113837,
      "height_km": 476.0353265615459,
      "semi_major_axis_km": 6853.384328405694,
      "eccentricity": 9.555e-05,
      "inclination_deg": 53.1623,
      "raan_deg": 325.1409,
      "arg_perigee_deg": 80.2611,
      "mean_anomaly_deg": 279.8497,
      "mean_motion_rev_day": 15.30189196
    },
    {
      "epoch": "2026-04-09T18:52:34.070016Z",
      "apogee_km": 475.5169214891039,
      "perigee_km": 474.779507999996,
      "latitude_deg": 5.232837648563504e-05,
      "longitude_deg": -161.49271884193647,
      "height_km": 476.03449510446063,
      "semi_major_axis_km": 6853.285214744549,
      "eccentricity": 5.38e-05,
      "inclination_deg": 53.1608,
      "raan_deg": 319.6789,
      "arg_perigee_deg": 88.0028,
      "mean_anomaly_deg": 272.1035,
      "mean_motion_rev_day": 15.30222391
    }
  ]
}